{
  "name": "SATGUS",
  "line1": "1 62713U 25009DJ  26113.12740198  .00004256  00000+0  34212-3 0  9991",
  "line2": "2 62713  97.7081 195.0071 0004518 279.4240  80.6473 15.00538835 69306",
  "fetched_at": "2026-04-24T00:35:51.308187+00:00"
}